OBJECT_NAME,OBJECT_ID,EPOCH,MEAN_MOTION,ECCENTRICITY,INCLINATION,RA_OF_ASC_NODE,ARG_OF_PERICENTER,MEAN_ANOMALY,EPHEMERIS_TYPE,CLASSIFICATION_TYPE,NORAD_CAT_ID,ELEMENT_SET_NO,REV_AT_EPOCH,BSTAR,MEAN_MOTION_DOT,MEAN_MOTION_DDOT
CUBEBUG-2 (LO-74),2013-066AA,2026-06-18T14:29:33.447840,14.93772226,.00583063,97.8910,118.5878,24.5043,335.8927,0,U,39440,999,67720,.37368529E-3,.4033E-4,0
FUNCUBE-1 (AO-73),2013-066AE,2026-06-18T09:10:33.179808,15.09501889,.00357367,97.8280,140.8531,196.6039,163.4022,0,U,39444,999,67984,.3027358E-3,.4855E-4,0
UWE-3,2013-066AG,2026-06-18T14:51:46.986912,14.97034048,.0047372,97.8699,125.7026,316.3669,43.3811,0,U,39446,999,67779,.31072148E-3,.3597E-4,0
UNISAT-6,2014-033C,2026-06-18T09:51:28.370592,14.88251057,.00461998,97.7883,322.1007,65.3888,295.2132,0,U,40012,999,64634,.21275283E-3,.1947E-4,0
DUCHIFAT-1,2014-033M,2026-06-18T10:17:11.174784,15.64804181,.00028843,98.0449,228.7634,114.5006,245.6553,0,U,40021,999,65594,.88744814E-3,.87001E-3,0
QB50P1,2014-033R,2026-06-18T14:24:00.295488,15.18277268,.00079826,98.0962,180.8451,209.9659,150.1117,0,U,40025,999,65324,.30543944E-3,.6188E-4,0
LILACSAT-2,2015-049K,2026-06-18T15:02:27.654144,15.51483884,.00056127,97.4639,206.5232,238.1269,121.9437,0,U,40908,999,59597,.22980935E-3,.13486E-3,0
FOX-1A (AO-85),2015-058D,2026-06-18T13:26:15.527616,14.90974956,.01305383,64.7759,274.7182,56.0558,305.2883,0,U,40967,999,11377,.17228667E-3,.1828E-4,0
CAS-2T & KS-1Q,2016-066G,2026-06-18T11:41:44.254464,14.44698252,.03428289,98.3822,245.2088,125.5473,237.8197,0,U,41847,999,50498,.20119143E-3,.1386E-4,0
RADFXSAT (FOX-1B),2017-073E,2026-06-17T14:31:00.659136,15.12722439,.0149538,97.4696,35.8108,327.7970,31.4193,0,U,43017,999,46545,.24962E-3,.5679E-4,0
DIWATA-2B,2018-084H,2026-06-18T13:41:15.387072,15.00457122,.00125861,98.1179,5.8380,165.7136,194.4445,0,U,43678,999,41642,.14823286E-3,.1802E-4,0
ES'HAIL 2,2018-090A,2026-06-18T13:02:45.310272,1.00271405,.00016858,0.0163,25.5312,98.6204,4.0957,0,U,43700,999,2769,0,.138E-5,0
FOX-1CLIFF (AO-95),2018-099N,2026-06-18T03:01:57.284544,15.26728638,.00078742,97.4378,229.3690,354.3313,5.7835,0,U,43770,999,41336,.35966179E-3,.939E-4,0
ITASAT,2018-099AE,2026-06-18T09:43:10.752384,15.19069917,.00119614,97.4024,220.8924,356.0419,4.0719,0,U,43786,999,41309,.25057988E-3,.5196E-4,0
JY1SAT (JO-97),2018-099AX,2026-06-18T03:21:08.262144,15.33679040,.00043897,97.4123,231.9773,257.5077,102.5675,0,U,43803,999,41377,.43793924E-3,.14196E-3,0
UWE-4,2018-111E,2026-06-18T06:00:53.776224,15.46181512,.00053009,97.5854,97.6902,337.5186,22.5830,0,U,43880,999,41094,.50222648E-3,.24613E-3,0
TIANYAN 01,2019-093C,2026-06-18T14:13:50.118816,14.86519996,.00150848,97.7533,241.7907,82.5676,277.7253,0,U,44881,999,35162,.20988056E-4,.133E-5,0
RS-44 & BREEZE-KM R/B,2019-096E,2026-06-18T11:46:31.341792,12.79748854,.02182209,82.5219,338.8385,141.1281,220.5745,0,U,44909,999,30251,-.22182571E-4,.7E-7,0
SALSAT,2020-068K,2026-06-18T10:53:20.067072,15.29814902,.00079869,97.8850,172.5955,302.8690,57.1780,0,U,46495,999,31555,.21400854E-3,.61E-4,0
XW-3 (CAS-9),2021-131B,2026-06-18T13:57:50.355648,14.41358512,.00053975,98.4988,261.9641,93.8677,266.3130,0,U,50466,999,23531,.11077129E-3,.315E-5,0
GREENCUBE (IO-117),2022-080E,2026-06-18T10:18:19.245024,6.42583246,.00089041,70.1442,297.8130,289.4279,70.5418,0,U,53109,999,9214,0,-.3E-7,0
UMKA 1 (RS40S),2023-091G,2026-06-18T14:34:24.049920,15.20832074,.0014272,97.5047,228.2990,113.2428,247.0311,0,U,57172,999,16422,.21882514E-3,.477E-4,0
CUBESX-HSE 3 (RS42S),2023-091N,2026-06-18T14:40:35.512032,15.31243946,.00119915,97.5087,235.2167,90.5232,269.7383,0,U,57178,999,16464,.33878944E-3,.1017E-3,0
MONITOR-3 (RS58S),2023-091Q,2026-06-18T13:46:04.497024,15.27865205,.00130848,97.5079,233.0298,96.5438,263.7291,0,U,57180,999,16450,.31815367E-3,.8602E-4,0
MONITOR-4 (RS57S),2023-091S,2026-06-18T14:50:06.602208,15.27951714,.00130757,97.5073,233.0461,96.8342,263.4385,0,U,57182,999,16451,.3140261E-3,.8511E-4,0
MONITOR-2 (RS39S),2023-091U,2026-06-18T13:32:42.526176,15.18921487,.00127571,97.5069,227.8385,106.9687,253.2946,0,U,57184,999,16416,.20016118E-3,.4118E-4,0
SVYATOBOR 1 (RS60S),2023-091X,2026-06-18T13:36:20.869344,15.26634878,.00108586,97.5085,233.3915,90.4659,269.7824,0,U,57187,999,16452,.26443284E-3,.6867E-4,0
VIZARD-METEO (RS38S),2023-091Z,2026-06-18T13:56:20.599008,15.36062932,.00081778,97.5088,239.0939,73.5994,286.6148,0,U,57189,999,16490,.37176139E-3,.12995E-3,0
POLYTECH-UNIVERSE 3 (RS46S),2023-091AB,2026-06-18T14:11:36.959136,15.19124144,.00169288,97.5044,227.3698,122.3343,237.9533,0,U,57191,999,16416,.19838834E-3,.4111E-4,0
UTMN 2 (RS27S),2023-091AP,2026-06-18T13:30:44.764704,15.32080352,.00091771,97.5084,236.8032,79.7033,280.5243,0,U,57203,999,16475,.3341164E-3,.10285E-3,0
