CUBEBUG-2 (LO-74)       
1 39440U 13066AA  26169.60385935  .00004033  00000+0  37369-3 0  9999
2 39440  97.8910 118.5878 0058306  24.5043 335.8927 14.93772226677206
FUNCUBE-1 (AO-73)       
1 39444U 13066AE  26169.38232847  .00004855  00000+0  30274-3 0  9991
2 39444  97.8280 140.8531 0035736 196.6039 163.4022 15.09501889679848
UWE-3                   
1 39446U 13066AG  26169.61929383  .00003597  00000+0  31072-3 0  9996
2 39446  97.8699 125.7026 0047372 316.3669  43.3811 14.97034048677792
UNISAT-6                
1 40012U 14033C   26169.41074503  .00001947  00000+0  21275-3 0  9996
2 40012  97.7883 322.1007 0046199  65.3888 295.2132 14.88251057646341
DUCHIFAT-1              
1 40021U 14033M   26169.42860156  .00087001  00000+0  88745-3 0  9994
2 40021  98.0449 228.7634 0002884 114.5006 245.6553 15.64804181655941
QB50P1                  
1 40025U 14033R   26169.60000342  .00006188  00000+0  30544-3 0  9992
2 40025  98.0962 180.8451 0007982 209.9659 150.1117 15.18277268653243
LILACSAT-2              
1 40908U 15049K   26169.62670896  .00013486  00000+0  22981-3 0  9994
2 40908  97.4639 206.5232 0005612 238.1269 121.9437 15.51483884595975
FOX-1A (AO-85)          
1 40967U 15058D   26169.55990194  .00001828  00000+0  17229-3 0  9993
2 40967  64.7759 274.7182 0130538  56.0558 305.2883 14.90974956113778
CAS-2T & KS-1Q          
1 41847U 16066G   26169.48731776  .00001386  00000+0  20119-3 0  9993
2 41847  98.3822 245.2088 0342828 125.5473 237.8197 14.44698252504989
RADFXSAT (FOX-1B)       
1 43017U 17073E   26168.60486874  .00005679  00000+0  24962-3 0  9991
2 43017  97.4696  35.8108 0149538 327.7970  31.4193 15.12722439465459
DIWATA-2B               
1 43678U 18084H   26169.57031698  .00001802  00000+0  14823-3 0  9993
2 43678  98.1179   5.8380 0012586 165.7136 194.4445 15.00457122416425
ES'HAIL 2               
1 43700U 18090A   26169.54357998  .00000138  00000+0  00000+0 0  9996
2 43700   0.0163  25.5312 0001685  98.6204   4.0957  1.00271405 27692
FOX-1CLIFF (AO-95)      
1 43770U 18099N   26169.12635746  .00009390  00000+0  35966-3 0  9998
2 43770  97.4378 229.3690 0007874 354.3313   5.7835 15.26728638413363
ITASAT                  
1 43786U 18099AE  26169.40498556  .00005196  00000+0  25058-3 0  9993
2 43786  97.4024 220.8924 0011961 356.0419   4.0719 15.19069917413095
JY1SAT (JO-97)          
1 43803U 18099AX  26169.13967896  .00014196  00000+0  43794-3 0  9998
2 43803  97.4123 231.9773 0004389 257.5077 102.5675 15.33679040413771
UWE-4                   
1 43880U 18111E   26169.25062241  .00024613  00000+0  50223-3 0  9991
2 43880  97.5854  97.6902 0005300 337.5186  22.5830 15.46181512410949
TIANYAN 01              
1 44881U 19093C   26169.59294119  .00000133  00000+0  20988-4 0  9998
2 44881  97.7533 241.7907 0015084  82.5676 277.7253 14.86519996351621
RS-44 & BREEZE-KM R/B   
1 44909U 19096E   26169.49064053  .00000007  00000+0 -22183-4 0  9993
2 44909  82.5219 338.8385 0218220 141.1281 220.5745 12.79748854302517
SALSAT                  
1 46495U 20068K   26169.45370448  .00006100  00000+0  21401-3 0  9990
2 46495  97.8850 172.5955 0007986 302.8690  57.1780 15.29814902315557
XW-3 (CAS-9)            
1 50466U 21131B   26169.58183282  .00000315  00000+0  11077-3 0  9997
2 50466  98.4988 261.9641 0005397  93.8677 266.3130 14.41358512235311
GREENCUBE (IO-117)      
1 53109U 22080E   26169.42938941 -.00000003  00000+0  00000+0 0  9996
2 53109  70.1442 297.8130 0008904 289.4279  70.5418  6.42583246 92141
UMKA 1 (RS40S)          
1 57172U 23091G   26169.60722280  .00004770  00000+0  21883-3 0  9990
2 57172  97.5047 228.2990 0014272 113.2428 247.0311 15.20832074164220
CUBESX-HSE 3 (RS42S)    
1 57178U 23091N   26169.61152213  .00010170  00000+0  33879-3 0  9999
2 57178  97.5087 235.2167 0011991  90.5232 269.7383 15.31243946164641
MONITOR-3 (RS58S)       
1 57180U 23091Q   26169.57366316  .00008602  00000+0  31815-3 0  9993
2 57180  97.5079 233.0298 0013084  96.5438 263.7291 15.27865205164505
MONITOR-4 (RS57S)       
1 57182U 23091S   26169.61813197  .00008511  00000+0  31403-3 0  9996
2 57182  97.5073 233.0461 0013075  96.8342 263.4385 15.27951714164513
MONITOR-2 (RS39S)       
1 57184U 23091U   26169.56438109  .00004118  00000+0  20016-3 0  9995
2 57184  97.5069 227.8385 0012757 106.9687 253.2946 15.18921487164162
SVYATOBOR 1 (RS60S)     
1 57187U 23091X   26169.56690821  .00006867  00000+0  26443-3 0  9992
2 57187  97.5085 233.3915 0010858  90.4659 269.7824 15.26634878164521
VIZARD-METEO (RS38S)    
1 57189U 23091Z   26169.58079397  .00012995  00000+0  37176-3 0  9999
2 57189  97.5088 239.0939 0008177  73.5994 286.6148 15.36062932164906
POLYTECH-UNIVERSE 3 (R*)
1 57191U 23091AB  26169.59139999  .00004111  00000+0  19839-3 0  9995
2 57191  97.5044 227.3698 0016928 122.3343 237.9533 15.19124144164167
UTMN 2 (RS27S)          
1 57203U 23091AP  26169.56301811  .00010285  00000+0  33412-3 0  9992
2 57203  97.5084 236.8032 0009177  79.7033 280.5243 15.32080352164755
